start=new Date('2022-10-03T00:00:00.000Z').valueOf();
sats=[{"GP_ID":"214048947","PERIAPSIS":"546.190","REV_AT_EPOCH":"8782","MEAN_ANOMALY":"275.8263","CENTER_NAME":"EARTH","FILE":"3589751","ARG_OF_PERICENTER":"84.2898","TLE_LINE1":"1 47801U 21018Q   22275.83227460  .00002092  00000-0  15932-3 0  9998","BSTAR":"0.00015932000000","ELEMENT_SET_NO":"999","EPHEMERIS_TYPE":"0","EPOCH":"2022-10-02T19:58:28.525440","ECCENTRICITY":"0.00015050","INCLINATION":"53.0558","MEAN_MOTION":"15.06393805","MEAN_MOTION_DOT":"0.00002092","CLASSIFICATION_TYPE":"U","OBJECT_ID":"2021-018Q","REF_FRAME":"TEME","SITE":"AFETR","PERIOD":"95.593","TLE_LINE2":"2 47801  53.0558 105.4860 0001505  84.2898 275.8263 15.06393805 87820","DECAY_DATE":null,"MEAN_MOTION_DDOT":"0.0000000000000","MEAN_ELEMENT_THEORY":"SGP4","SEMIMAJOR_AXIS":"6925.368","TIME_SYSTEM":"UTC","LAUNCH_DATE":"2021-03-11","OBJECT_TYPE":"PAYLOAD","NORAD_CAT_ID":"47801","COUNTRY_CODE":"US","OBJECT_NAME":"STARLINK-2382","RA_OF_ASC_NODE":"105.4860","APOAPSIS":"548.275","RCS_SIZE":"MEDIUM"},{"FILE":"3589751","TLE_LINE1":"1 47802U 21018R   22275.87833137 -.00002018  00000-0 -11662-3 0  9993","ARG_OF_PERICENTER":"97.4548","BSTAR":"-0.00011662000000","ELEMENT_SET_NO":"999","EPHEMERIS_TYPE":"0","EPOCH":"2022-10-02T21:04:47.830368","ECCENTRICITY":"0.00012140","INCLINATION":"53.0550","MEAN_MOTION":"15.06397313","MEAN_MOTION_DOT":"-0.00002018","CLASSIFICATION_TYPE":"U","GP_ID":"214049184","PERIAPSIS":"546.381","REV_AT_EPOCH":"8755","MEAN_ANOMALY":"262.6579","CENTER_NAME":"EARTH","OBJECT_TYPE":"PAYLOAD","NORAD_CAT_ID":"47802","COUNTRY_CODE":"US","RA_OF_ASC_NODE":"125.1926","OBJECT_NAME":"STARLINK-2383","APOAPSIS":"548.063","RCS_SIZE":"LARGE","OBJECT_ID":"2021-018R","REF_FRAME":"TEME","SITE":"AFETR","PERIOD":"95.592","TLE_LINE2":"2 47802  53.0550 125.1926 0001214  97.4548 262.6579 15.06397313 87552","DECAY_DATE":null,"MEAN_MOTION_DDOT":"0.0000000000000","SEMIMAJOR_AXIS":"6925.357","MEAN_ELEMENT_THEORY":"SGP4","TIME_SYSTEM":"UTC","LAUNCH_DATE":"2021-03-11"},{"INCLINATION":"53.0539","MEAN_MOTION":"15.06399079","MEAN_MOTION_DOT":"0.00000569","CLASSIFICATION_TYPE":"U","ECCENTRICITY":"0.00012790","BSTAR":"0.00005709300000","EPOCH":"2022-10-02T19:24:36.715392","ELEMENT_SET_NO":"999","EPHEMERIS_TYPE":"0","FILE":"3589751","ARG_OF_PERICENTER":"90.5976","TLE_LINE1":"1 47803U 21018S   22275.80875828  .00000569  00000-0  57093-4 0  9996","MEAN_ANOMALY":"269.5160","CENTER_NAME":"EARTH","PERIAPSIS":"546.331","REV_AT_EPOCH":"8788","GP_ID":"214047951","COUNTRY_CODE":"US","RA_OF_ASC_NODE":"100.5198","OBJECT_NAME":"STARLINK-2384","APOAPSIS":"548.102","RCS_SIZE":"LARGE","NORAD_CAT_ID":"47803","OBJECT_TYPE":"PAYLOAD","TIME_SYSTEM":"UTC","LAUNCH_DATE":"2021-03-11","DECAY_DATE":null,"MEAN_MOTION_DDOT":"0.0000000000000","SEMIMAJOR_AXIS":"6925.351","MEAN_ELEMENT_THEORY":"SGP4","PERIOD":"95.592","TLE_LINE2":"2 47803  53.0539 100.5198 0001279  90.5976 269.5160 15.06399079 87887","OBJECT_ID":"2021-018S","REF_FRAME":"TEME","SITE":"AFETR"},{"PERIOD":"95.592","TLE_LINE2":"2 47804  53.0545 100.4537 0001198  82.0150 278.0975 15.06400905 87881","OBJECT_ID":"2021-018T","REF_FRAME":"TEME","SITE":"AFETR","TIME_SYSTEM":"UTC","LAUNCH_DATE":"2021-03-11","DECAY_DATE":null,"MEAN_MOTION_DDOT":"0.0000000000000","MEAN_ELEMENT_THEORY":"SGP4","SEMIMAJOR_AXIS":"6925.346","NORAD_CAT_ID":"47804","OBJECT_TYPE":"PAYLOAD","COUNTRY_CODE":"US","RA_OF_ASC_NODE":"100.4537","OBJECT_NAME":"STARLINK-2385","APOAPSIS":"548.040","RCS_SIZE":"LARGE","GP_ID":"214048200","MEAN_ANOMALY":"278.0975","CENTER_NAME":"EARTH","PERIAPSIS":"546.381","REV_AT_EPOCH":"8788","BSTAR":"0.00004430900000","ELEMENT_SET_NO":"999","EPHEMERIS_TYPE":"0","EPOCH":"2022-10-02T19:45:50.244480","FILE":"3589751","ARG_OF_PERICENTER":"82.0150","TLE_LINE1":"1 47804U 21018T   22275.82349820  .00000379  00000-0  44309-4 0  9992","INCLINATION":"53.0545","MEAN_MOTION":"15.06400905","MEAN_MOTION_DOT":"0.00000379","CLASSIFICATION_TYPE":"U","ECCENTRICITY":"0.00011980"},{"GP_ID":"214048448","CENTER_NAME":"EARTH","MEAN_ANOMALY":"265.3993","REV_AT_EPOCH":"8788","PERIAPSIS":"546.287","EPOCH":"2022-10-02T18:58:07.148928","ELEMENT_SET_NO":"999","EPHEMERIS_TYPE":"0","BSTAR":"0.00000899210000","TLE_LINE1":"1 47805U 21018U   22275.79036052 -.00000147  00000-0  89921-5 0  9993","ARG_OF_PERICENTER":"94.7149","FILE":"3589751","MEAN_MOTION_DOT":"-0.00000147","CLASSIFICATION_TYPE":"U","INCLINATION":"53.0537","MEAN_MOTION":"15.06398817","ECCENTRICITY":"0.00013430","TLE_LINE2":"2 47805  53.0537 100.8405 0001343  94.7149 265.3993 15.06398817 87888","PERIOD":"95.592","SITE":"AFETR","REF_FRAME":"TEME","OBJECT_ID":"2021-018U","LAUNCH_DATE":"2021-03-11","TIME_SYSTEM":"UTC","MEAN_ELEMENT_THEORY":"SGP4","SEMIMAJOR_AXIS":"6925.352","MEAN_MOTION_DDOT":"0.0000000000000","DECAY_DATE":null,"NORAD_CAT_ID":"47805","OBJECT_TYPE":"PAYLOAD","RCS_SIZE":"LARGE","APOAPSIS":"548.147","OBJECT_NAME":"STARLINK-2386","RA_OF_ASC_NODE":"100.8405","COUNTRY_CODE":"US"},{"REV_AT_EPOCH":"8774","PERIAPSIS":"546.346","CENTER_NAME":"EARTH","MEAN_ANOMALY":"278.3915","GP_ID":"214048685","ECCENTRICITY":"0.00012800","INCLINATION":"53.0543","MEAN_MOTION":"15.06393974","CLASSIFICATION_TYPE":"U","MEAN_MOTION_DOT":"0.00000198","FILE":"3589751","ARG_OF_PERICENTER":"81.7219","TLE_LINE1":"1 47806U 21018V   22275.86082324  .00000198  00000-0  32187-4 0  9991","BSTAR":"0.00003218700000","ELEMENT_SET_NO":"999","EPHEMERIS_TYPE":"0","EPOCH":"2022-10-02T20:39:35.127936","MEAN_MOTION_DDOT":"0.0000000000000","DECAY_DATE":null,"MEAN_ELEMENT_THEORY":"SGP4","SEMIMAJOR_AXIS":"6925.367","TIME_SYSTEM":"UTC","LAUNCH_DATE":"2021-03-11","OBJECT_ID":"2021-018V","SITE":"AFETR","REF_FRAME":"TEME","PERIOD":"95.593","TLE_LINE2":"2 47806  53.0543 115.2878 0001280  81.7219 278.3915 15.06393974 87746","OBJECT_NAME":"STARLINK-2387","RA_OF_ASC_NODE":"115.2878","COUNTRY_CODE":"US","RCS_SIZE":"LARGE","APOAPSIS":"548.118","OBJECT_TYPE":"PAYLOAD","NORAD_CAT_ID":"47806"},{"OBJECT_TYPE":"PAYLOAD","NORAD_CAT_ID":"47807","APOAPSIS":"548.223","RCS_SIZE":"LARGE","COUNTRY_CODE":"US","OBJECT_NAME":"STARLINK-2388","RA_OF_ASC_NODE":"90.6330","REF_FRAME":"TEME","SITE":"AFETR","OBJECT_ID":"2021-018W","TLE_LINE2":"2 47807  53.0539  90.6330 0001445  80.8752 279.2401 15.06397021 88014","PERIOD":"95.592","MEAN_ELEMENT_THEORY":"SGP4","SEMIMAJOR_AXIS":"6925.358","DECAY_DATE":null,"MEAN_MOTION_DDOT":"0.0000000000000","LAUNCH_DATE":"2021-03-11","TIME_SYSTEM":"UTC","TLE_LINE1":"1 47807U 21018W   22275.78388197  .00000143  00000-0  28482-4 0  9993","ARG_OF_PERICENTER":"80.8752","FILE":"3589751","ELEMENT_SET_NO":"999","EPOCH":"2022-10-02T18:48:47.402208","EPHEMERIS_TYPE":"0","BSTAR":"0.00002848200000","ECCENTRICITY":"0.00014450","MEAN_MOTION_DOT":"0.00000143","CLASSIFICATION_TYPE":"U","MEAN_MOTION":"15.06397021","INCLINATION":"53.0539","GP_ID":"214047452","PERIAPSIS":"546.222","REV_AT_EPOCH":"8801","MEAN_ANOMALY":"279.2401","CENTER_NAME":"EARTH"},{"TLE_LINE1":"1 47808U 21018X   22275.81290333  .00000477  00000-0  50878-4 0  9996","ARG_OF_PERICENTER":"79.8986","FILE":"3589751","ELEMENT_SET_NO":"999","EPHEMERIS_TYPE":"0","EPOCH":"2022-10-02T19:30:34.847712","BSTAR":"0.00005087800000","ECCENTRICITY":"0.00012610","CLASSIFICATION_TYPE":"U","MEAN_MOTION_DOT":"0.00000477","INCLINATION":"53.0547","MEAN_MOTION":"15.06400096","GP_ID":"214047701","REV_AT_EPOCH":"8773","PERIAPSIS":"546.340","CENTER_NAME":"EARTH","MEAN_ANOMALY":"280.2145","OBJECT_TYPE":"PAYLOAD","NORAD_CAT_ID":"47808","RCS_SIZE":"LARGE","APOAPSIS":"548.087","RA_OF_ASC_NODE":"115.4995","OBJECT_NAME":"STARLINK-2389","COUNTRY_CODE":"US","SITE":"AFETR","REF_FRAME":"TEME","OBJECT_ID":"2021-018X","TLE_LINE2":"2 47808  53.0547 115.4995 0001261  79.8986 280.2145 15.06400096 87732","PERIOD":"95.592","MEAN_ELEMENT_THEORY":"SGP4","SEMIMAJOR_AXIS":"6925.348","MEAN_MOTION_DDOT":"0.0000000000000","DECAY_DATE":null,"LAUNCH_DATE":"2021-03-11","TIME_SYSTEM":"UTC"},{"COUNTRY_CODE":"US","OBJECT_NAME":"STARLINK-2390","RA_OF_ASC_NODE":"120.4702","APOAPSIS":"548.275","RCS_SIZE":"LARGE","NORAD_CAT_ID":"47809","OBJECT_TYPE":"PAYLOAD","TIME_SYSTEM":"UTC","LAUNCH_DATE":"2021-03-11","DECAY_DATE":null,"MEAN_MOTION_DDOT":"0.0000000000000","SEMIMAJOR_AXIS":"6925.380","MEAN_ELEMENT_THEORY":"SGP4","PERIOD":"95.593","TLE_LINE2":"2 47809  53.0541 120.4702 0001488  80.9439 279.1718 15.06389743 87666","OBJECT_ID":"2021-018Y","REF_FRAME":"TEME","SITE":"AFETR","INCLINATION":"53.0541","MEAN_MOTION":"15.06389743","CLASSIFICATION_TYPE":"U","MEAN_MOTION_DOT":"-0.00000006","ECCENTRICITY":"0.00014880","BSTAR":"0.00001850400000","ELEMENT_SET_NO":"999","EPHEMERIS_TYPE":"0","EPOCH":"2022-10-02T19:36:31.410144","FILE":"3589751","ARG_OF_PERICENTER":"80.9439","TLE_LINE1":"1 47809U 21018Y   22275.81703021 -.00000006  00000-0  18504-4 0  9999","MEAN_ANOMALY":"279.1718","CENTER_NAME":"EARTH","PERIAPSIS":"546.214","REV_AT_EPOCH":"8766","GP_ID":"214048948"},{"NORAD_CAT_ID":"47810","OBJECT_TYPE":"PAYLOAD","APOAPSIS":"548.166","RCS_SIZE":"LARGE","COUNTRY_CODE":"US","OBJECT_NAME":"STARLINK-2391","RA_OF_ASC_NODE":"130.3589","TLE_LINE2":"2 47810  53.0526 130.3589 0001346 100.7208 259.3933 15.06393484 87523","PERIOD":"95.593","REF_FRAME":"TEME","SITE":"AFETR","OBJECT_ID":"2021-018Z","LAUNCH_DATE":"2021-03-11","TIME_SYSTEM":"UTC","MEAN_ELEMENT_THEORY":"SGP4","SEMIMAJOR_AXIS":"6925.369","DECAY_DATE":null,"MEAN_MOTION_DDOT":"0.0000000000000","ELEMENT_SET_NO":"999","EPHEMERIS_TYPE":"0","EPOCH":"2022-10-02T20:13:42.652992","BSTAR":"-0.00010753000000","ARG_OF_PERICENTER":"100.7208","TLE_LINE1":"1 47810U 21018Z   22275.84285478 -.00001882  00000-0 -10753-3 0  9996","FILE":"3589751","MEAN_MOTION_DOT":"-0.00001882","CLASSIFICATION_TYPE":"U","MEAN_MOTION":"15.06393484","INCLINATION":"53.0526","ECCENTRICITY":"0.00013460","GP_ID":"214049185","MEAN_ANOMALY":"259.3933","CENTER_NAME":"EARTH","PERIAPSIS":"546.301","REV_AT_EPOCH":"8752"}];
